<?xml version="1.0" encoding="UTF-8"?>
<ndm xmlns:xsi="http://www.w3.org/2001/XMLSchema-instance" xsi:noNamespaceSchemaLocation="https://sanaregistry.org/r/ndmxml_unqualified/ndmxml-2.0.0-master-2.0.xsd">
<omm id="CCSDS_OMM_VERS" version="2.0">
<header><CREATION_DATE/><ORIGINATOR/></header><body><segment><metadata><OBJECT_NAME>ORBCOMM-X</OBJECT_NAME><OBJECT_ID>1991-050C</OBJECT_ID><CENTER_NAME>EARTH</CENTER_NAME><REF_FRAME>TEME</REF_FRAME><TIME_SYSTEM>UTC</TIME_SYSTEM><MEAN_ELEMENT_THEORY>SGP4</MEAN_ELEMENT_THEORY></metadata><data><meanElements><EPOCH>2024-10-07T10:28:13.391904</EPOCH><MEAN_MOTION>14.42795265</MEAN_MOTION><ECCENTRICITY>.0002944</ECCENTRICITY><INCLINATION>98.3782</INCLINATION><RA_OF_ASC_NODE>346.8055</RA_OF_ASC_NODE><ARG_OF_PERICENTER>215.3508</ARG_OF_PERICENTER><MEAN_ANOMALY>144.7488</MEAN_ANOMALY></meanElements><tleParameters><EPHEMERIS_TYPE>0</EPHEMERIS_TYPE><CLASSIFICATION_TYPE>U</CLASSIFICATION_TYPE><NORAD_CAT_ID>21576</NORAD_CAT_ID><ELEMENT_SET_NO>999</ELEMENT_SET_NO><REV_AT_EPOCH>74566</REV_AT_EPOCH><BSTAR>.64575E-3</BSTAR><MEAN_MOTION_DOT>.211E-4</MEAN_MOTION_DOT><MEAN_MOTION_DDOT>0</MEAN_MOTION_DDOT></tleParameters></data></segment></body></omm>
<omm id="CCSDS_OMM_VERS" version="2.0">
<header><CREATION_DATE/><ORIGINATOR/></header><body><segment><metadata><OBJECT_NAME>ORBCOMM FM01</OBJECT_NAME><OBJECT_ID>1995-017A</OBJECT_ID><CENTER_NAME>EARTH</CENTER_NAME><REF_FRAME>TEME</REF_FRAME><TIME_SYSTEM>UTC</TIME_SYSTEM><MEAN_ELEMENT_THEORY>SGP4</MEAN_ELEMENT_THEORY></metadata><data><meanElements><EPOCH>2024-10-08T04:58:55.194528</EPOCH><MEAN_MOTION>14.83630115</MEAN_MOTION><ECCENTRICITY>.0007409</ECCENTRICITY><INCLINATION>69.9676</INCLINATION><RA_OF_ASC_NODE>339.7753</RA_OF_ASC_NODE><ARG_OF_PERICENTER>329.1975</ARG_OF_PERICENTER><MEAN_ANOMALY>30.8740</MEAN_ANOMALY></meanElements><tleParameters><EPHEMERIS_TYPE>0</EPHEMERIS_TYPE><CLASSIFICATION_TYPE>U</CLASSIFICATION_TYPE><NORAD_CAT_ID>23545</NORAD_CAT_ID><ELEMENT_SET_NO>999</ELEMENT_SET_NO><REV_AT_EPOCH>57539</REV_AT_EPOCH><BSTAR>.99449E-2</BSTAR><MEAN_MOTION_DOT>.83152E-3</MEAN_MOTION_DOT><MEAN_MOTION_DDOT>0</MEAN_MOTION_DDOT></tleParameters></data></segment></body></omm>
<omm id="CCSDS_OMM_VERS" version="2.0">
<header><CREATION_DATE/><ORIGINATOR/></header><body><segment><metadata><OBJECT_NAME>ORBCOMM FM02</OBJECT_NAME><OBJECT_ID>1995-017B</OBJECT_ID><CENTER_NAME>EARTH</CENTER_NAME><REF_FRAME>TEME</REF_FRAME><TIME_SYSTEM>UTC</TIME_SYSTEM><MEAN_ELEMENT_THEORY>SGP4</MEAN_ELEMENT_THEORY></metadata><data><meanElements><EPOCH>2024-10-08T12:56:47.056128</EPOCH><MEAN_MOTION>14.83430758</MEAN_MOTION><ECCENTRICITY>.0009227</ECCENTRICITY><INCLINATION>69.9700</INCLINATION><RA_OF_ASC_NODE>358.6020</RA_OF_ASC_NODE><ARG_OF_PERICENTER>329.5431</ARG_OF_PERICENTER><MEAN_ANOMALY>30.5183</MEAN_ANOMALY></meanElements><tleParameters><EPHEMERIS_TYPE>0</EPHEMERIS_TYPE><CLASSIFICATION_TYPE>U</CLASSIFICATION_TYPE><NORAD_CAT_ID>23546</NORAD_CAT_ID><ELEMENT_SET_NO>999</ELEMENT_SET_NO><REV_AT_EPOCH>57503</REV_AT_EPOCH><BSTAR>.67359E-2</BSTAR><MEAN_MOTION_DOT>.55814E-3</MEAN_MOTION_DOT><MEAN_MOTION_DDOT>0</MEAN_MOTION_DDOT></tleParameters></data></segment></body></omm>
<omm id="CCSDS_OMM_VERS" version="2.0">
<header><CREATION_DATE/><ORIGINATOR/></header><body><segment><metadata><OBJECT_NAME>ORBCOMM FM08</OBJECT_NAME><OBJECT_ID>1997-084A</OBJECT_ID><CENTER_NAME>EARTH</CENTER_NAME><REF_FRAME>TEME</REF_FRAME><TIME_SYSTEM>UTC</TIME_SYSTEM><MEAN_ELEMENT_THEORY>SGP4</MEAN_ELEMENT_THEORY></metadata><data><meanElements><EPOCH>2024-10-08T07:34:15.083040</EPOCH><MEAN_MOTION>14.43844203</MEAN_MOTION><ECCENTRICITY>.0006903</ECCENTRICITY><INCLINATION>45.0115</INCLINATION><RA_OF_ASC_NODE>135.3716</RA_OF_ASC_NODE><ARG_OF_PERICENTER>62.3423</ARG_OF_PERICENTER><MEAN_ANOMALY>297.8128</MEAN_ANOMALY></meanElements><tleParameters><EPHEMERIS_TYPE>0</EPHEMERIS_TYPE><CLASSIFICATION_TYPE>U</CLASSIFICATION_TYPE><NORAD_CAT_ID>25112</NORAD_CAT_ID><ELEMENT_SET_NO>999</ELEMENT_SET_NO><REV_AT_EPOCH>40511</REV_AT_EPOCH><BSTAR>.80094E-2</BSTAR><MEAN_MOTION_DOT>.2753E-3</MEAN_MOTION_DOT><MEAN_MOTION_DDOT>0</MEAN_MOTION_DDOT></tleParameters></data></segment></body></omm>
<omm id="CCSDS_OMM_VERS" version="2.0">
<header><CREATION_DATE/><ORIGINATOR/></header><body><segment><metadata><OBJECT_NAME>ORBCOMM FM10</OBJECT_NAME><OBJECT_ID>1997-084B</OBJECT_ID><CENTER_NAME>EARTH</CENTER_NAME><REF_FRAME>TEME</REF_FRAME><TIME_SYSTEM>UTC</TIME_SYSTEM><MEAN_ELEMENT_THEORY>SGP4</MEAN_ELEMENT_THEORY></metadata><data><meanElements><EPOCH>2024-10-08T08:00:36.747360</EPOCH><MEAN_MOTION>14.43715721</MEAN_MOTION><ECCENTRICITY>.0004472</ECCENTRICITY><INCLINATION>45.0136</INCLINATION><RA_OF_ASC_NODE>137.2824</RA_OF_ASC_NODE><ARG_OF_PERICENTER>31.4539</ARG_OF_PERICENTER><MEAN_ANOMALY>328.6578</MEAN_ANOMALY></meanElements><tleParameters><EPHEMERIS_TYPE>0</EPHEMERIS_TYPE><CLASSIFICATION_TYPE>U</CLASSIFICATION_TYPE><NORAD_CAT_ID>25113</NORAD_CAT_ID><ELEMENT_SET_NO>999</ELEMENT_SET_NO><REV_AT_EPOCH>40510</REV_AT_EPOCH><BSTAR>.74656E-2</BSTAR><MEAN_MOTION_DOT>.2557E-3</MEAN_MOTION_DOT><MEAN_MOTION_DDOT>0</MEAN_MOTION_DDOT></tleParameters></data></segment></body></omm>
<omm id="CCSDS_OMM_VERS" version="2.0">
<header><CREATION_DATE/><ORIGINATOR/></header><body><segment><metadata><OBJECT_NAME>ORBCOMM FM11</OBJECT_NAME><OBJECT_ID>1997-084C</OBJECT_ID><CENTER_NAME>EARTH</CENTER_NAME><REF_FRAME>TEME</REF_FRAME><TIME_SYSTEM>UTC</TIME_SYSTEM><MEAN_ELEMENT_THEORY>SGP4</MEAN_ELEMENT_THEORY></metadata><data><meanElements><EPOCH>2024-10-08T07:09:33.982272</EPOCH><MEAN_MOTION>14.43540220</MEAN_MOTION><ECCENTRICITY>.0005299</ECCENTRICITY><INCLINATION>45.0120</INCLINATION><RA_OF_ASC_NODE>137.6688</RA_OF_ASC_NODE><ARG_OF_PERICENTER>30.9388</ARG_OF_PERICENTER><MEAN_ANOMALY>329.1774</MEAN_ANOMALY></meanElements><tleParameters><EPHEMERIS_TYPE>0</EPHEMERIS_TYPE><CLASSIFICATION_TYPE>U</CLASSIFICATION_TYPE><NORAD_CAT_ID>25114</NORAD_CAT_ID><ELEMENT_SET_NO>999</ELEMENT_SET_NO><REV_AT_EPOCH>40508</REV_AT_EPOCH><BSTAR>.89156E-2</BSTAR><MEAN_MOTION_DOT>.30478E-3</MEAN_MOTION_DOT><MEAN_MOTION_DDOT>0</MEAN_MOTION_DDOT></tleParameters></data></segment></body></omm>
<omm id="CCSDS_OMM_VERS" version="2.0">
<header><CREATION_DATE/><ORIGINATOR/></header><body><segment><metadata><OBJECT_NAME>ORBCOMM FM12</OBJECT_NAME><OBJECT_ID>1997-084D</OBJECT_ID><CENTER_NAME>EARTH</CENTER_NAME><REF_FRAME>TEME</REF_FRAME><TIME_SYSTEM>UTC</TIME_SYSTEM><MEAN_ELEMENT_THEORY>SGP4</MEAN_ELEMENT_THEORY></metadata><data><meanElements><EPOCH>2024-10-08T07:57:02.207520</EPOCH><MEAN_MOTION>14.43505706</MEAN_MOTION><ECCENTRICITY>.0004377</ECCENTRICITY><INCLINATION>45.0126</INCLINATION><RA_OF_ASC_NODE>137.2604</RA_OF_ASC_NODE><ARG_OF_PERICENTER>32.0836</ARG_OF_PERICENTER><MEAN_ANOMALY>328.0280</MEAN_ANOMALY></meanElements><tleParameters><EPHEMERIS_TYPE>0</EPHEMERIS_TYPE><CLASSIFICATION_TYPE>U</CLASSIFICATION_TYPE><NORAD_CAT_ID>25115</NORAD_CAT_ID><ELEMENT_SET_NO>999</ELEMENT_SET_NO><REV_AT_EPOCH>40509</REV_AT_EPOCH><BSTAR>.83093E-2</BSTAR><MEAN_MOTION_DOT>.28365E-3</MEAN_MOTION_DOT><MEAN_MOTION_DDOT>0</MEAN_MOTION_DDOT></tleParameters></data></segment></body></omm>
<omm id="CCSDS_OMM_VERS" version="2.0">
<header><CREATION_DATE/><ORIGINATOR/></header><body><segment><metadata><OBJECT_NAME>ORBCOMM FM09</OBJECT_NAME><OBJECT_ID>1997-084E</OBJECT_ID><CENTER_NAME>EARTH</CENTER_NAME><REF_FRAME>TEME</REF_FRAME><TIME_SYSTEM>UTC</TIME_SYSTEM><MEAN_ELEMENT_THEORY>SGP4</MEAN_ELEMENT_THEORY></metadata><data><meanElements><EPOCH>2024-10-07T19:01:57.155232</EPOCH><MEAN_MOTION>14.43399277</MEAN_MOTION><ECCENTRICITY>.0005374</ECCENTRICITY><INCLINATION>45.0131</INCLINATION><RA_OF_ASC_NODE>140.5706</RA_OF_ASC_NODE><ARG_OF_PERICENTER>11.9432</ARG_OF_PERICENTER><MEAN_ANOMALY>348.1545</MEAN_ANOMALY></meanElements><tleParameters><EPHEMERIS_TYPE>0</EPHEMERIS_TYPE><CLASSIFICATION_TYPE>U</CLASSIFICATION_TYPE><NORAD_CAT_ID>25116</NORAD_CAT_ID><ELEMENT_SET_NO>999</ELEMENT_SET_NO><REV_AT_EPOCH>40498</REV_AT_EPOCH><BSTAR>.23264E-2</BSTAR><MEAN_MOTION_DOT>.7795E-4</MEAN_MOTION_DOT><MEAN_MOTION_DDOT>0</MEAN_MOTION_DDOT></tleParameters></data></segment></body></omm>

</ndm>
