ORBCOMM-X               
1 21576U 91050C   24281.43626611  .00002110  00000+0  64575-3 0  9995
2 21576  98.3782 346.8055 0002944 215.3508 144.7488 14.42795265745663
ORBCOMM FM01            
1 23545U 95017A   24282.20758327  .00083152  00000+0  99449-2 0  9998
2 23545  69.9676 339.7753 0007409 329.1975  30.8740 14.83630115575390
ORBCOMM FM02            
1 23546U 95017B   24282.53943352  .00055814  00000+0  67359-2 0  9998
2 23546  69.9700 358.6020 0009227 329.5431  30.5183 14.83430758575037
ORBCOMM FM08            
1 25112U 97084A   24282.31545235  .00027530  00000+0  80094-2 0  9994
2 25112  45.0115 135.3716 0006903  62.3423 297.8128 14.43844203405114
ORBCOMM FM10            
1 25113U 97084B   24282.33375865  .00025570  00000+0  74656-2 0  9996
2 25113  45.0136 137.2824 0004472  31.4539 328.6578 14.43715721405106
ORBCOMM FM11            
1 25114U 97084C   24282.29830998  .00030478  00000+0  89156-2 0  9999
2 25114  45.0120 137.6688 0005299  30.9388 329.1774 14.43540220405087
ORBCOMM FM12            
1 25115U 97084D   24282.33127555  .00028365  00000+0  83093-2 0  9999
2 25115  45.0126 137.2604 0004377  32.0836 328.0280 14.43505706405096
ORBCOMM FM09            
1 25116U 97084E   24281.79302263  .00007795  00000+0  23264-2 0  9998
2 25116  45.0131 140.5706 0005374  11.9432 348.1545 14.43399277404987
